STARLINK-31560          
1 59361U 24060P   26068.57596352 -.00000506  00000+0 -88704-5 0  9994
2 59361  43.0032 260.6500 0001084 262.1715  97.9014 15.27564558110048
TEVEL2-2                
1 63219U 25052K   26068.64848259  .00020339  00000+0  69428-3 0  9991
2 63219  97.3987 324.7700 0004693 105.7930 254.3828 15.30343745 54855
